{"type": "FeatureCollection", "features": [ {"type": "Feature", "properties": {"norad_id": 66619, "name": "STARLINK-35951", "group": "last-30-days", "lat": 38.43592700790142, "lon": -125.3872371575782, "alt_km": 382.9034311239948, "timestamp": "2025-12-10T11:33:52.172935+00:00", "meta": {"OBJECT_NAME": "STARLINK-35951", "OBJECT_ID": "2025-271C", "EPOCH": "2025-12-10T04:00:01.998720", "MEAN_MOTION": 15.61173039, "ECCENTRICITY": 8.57e-05, "INCLINATION": 53.1595, "RA_OF_ASC_NODE": 199.6328, "ARG_OF_PERICENTER": 86.8438, "MEAN_ANOMALY": 352.7002, "EPHEMERIS_TYPE": 0, "CLASSIFICATION_TYPE": "U", "NORAD_CAT_ID": 66619, "ELEMENT_SET_NO": 999, "REV_AT_EPOCH": 383, "BSTAR": -0.026631, "MEAN_MOTION_DOT": -0.02012455, "MEAN_MOTION_DDOT": 0}, "tle": {"line1": "1 66619U 25271C   25344.16668980 -.02012455  00000+0 -26631-1 0  9996", "line2": "2 66619  53.1595 199.6328 0000857  86.8438 352.7002 15.61173039  3832"}}, "geometry": {"type": "Point", "coordinates": [-125.3872371575782, 38.43592700790142]}}, {"type": "Feature", "properties": {"norad_id": 66620, "name": "STARLINK-35936", "group": "last-30-days", "lat": 34.607336495305, "lon": -130.73191840854705, "alt_km": 383.4957204621678, "timestamp": "2025-12-10T11:33:52.172946+00:00", "meta": {"OBJECT_NAME": "STARLINK-35936", "OBJECT_ID": "2025-271D", "EPOCH": "2025-12-10T04:00:01.998720", "MEAN_MOTION": 15.61172954, "ECCENTRICITY": 9.11e-05, "INCLINATION": 53.1596, "RA_OF_ASC_NODE": 199.6462, "ARG_OF_PERICENTER": 84.8169, "MEAN_ANOMALY": 348.9738, "EPHEMERIS_TYPE": 0, "CLASSIFICATION_TYPE": "U", "NORAD_CAT_ID": 66620, "ELEMENT_SET_NO": 999, "REV_AT_EPOCH": 383, "BSTAR": -0.026566, "MEAN_MOTION_DOT": -0.02008197, "MEAN_MOTION_DDOT": 0}, "tle": {"line1": "1 66620U 25271D   25344.16668980 -.02008197  00000+0 -26566-1 0  9993", "line2": "2 66620  53.1596 199.6462 0000911  84.8169 348.9738 15.61172954  3832"}}, "geometry": {"type": "Point", "coordinates": [-130.73191840854705, 34.607336495305]}}, {"type": "Feature", "properties": {"norad_id": 66621, "name": "STARLINK-35847", "group": "last-30-days", "lat": 51.934738754175484, "lon": -55.21215796420248, "alt_km": 380.6384161001988, "timestamp": "2025-12-10T11:33:52.172955+00:00", "meta": {"OBJECT_NAME": "STARLINK-35847", "OBJECT_ID": "2025-271E", "EPOCH": "2025-12-10T04:00:01.998720", "MEAN_MOTION": 15.61170471, "ECCENTRICITY": 0.0001108, "INCLINATION": 53.1597, "RA_OF_ASC_NODE": 199.5298, "ARG_OF_PERICENTER": 85.7208, "MEAN_ANOMALY": 43.0172, "EPHEMERIS_TYPE": 0, "CLASSIFICATION_TYPE": "U", "NORAD_CAT_ID": 66621, "ELEMENT_SET_NO": 999, "REV_AT_EPOCH": 383, "BSTAR": -0.026581, "MEAN_MOTION_DOT": -0.02009155, "MEAN_MOTION_DDOT": 0}, "tle": {"line1": "1 66621U 25271E   25344.16668980 -.02009155  00000+0 -26581-1 0  9996", "line2": "2 66621  53.1597 199.5298 0001108  85.7208  43.0172 15.61170471  3830"}}, "geometry": {"type": "Point", "coordinates": [-55.21215796420248, 51.934738754175484]}}, {"type": "Feature", "properties": {"norad_id": 66622, "name": "STARLINK-35950", "group": "last-30-days", "lat": 39.65441692570609, "lon": -123.48120897295297, "alt_km": 382.6388421127831, "timestamp": "2025-12-10T11:33:52.172965+00:00", "meta": {"OBJECT_NAME": "STARLINK-35950", "OBJECT_ID": "2025-271F", "EPOCH": "2025-12-10T04:00:01.998720", "MEAN_MOTION": 15.61167035, "ECCENTRICITY": 9.45e-05, "INCLINATION": 53.1593, "RA_OF_ASC_NODE": 199.63, "ARG_OF_PERICENTER": 85.5086, "MEAN_ANOMALY": 355.9541, "EPHEMERIS_TYPE": 0, "CLASSIFICATION_TYPE": "U", "NORAD_CAT_ID": 66622, "ELEMENT_SET_NO": 999, "REV_AT_EPOCH": 383, "BSTAR": -0.026485, "MEAN_MOTION_DOT": -0.02002475, "MEAN_MOTION_DDOT": 0}, "tle": {"line1": "1 66622U 25271F   25344.16668980 -.02002475  00000+0 -26485-1 0  9998", "line2": "2 66622  53.1593 199.6300 0000945  85.5086 355.9541 15.61167035  3839"}}, "geometry": {"type": "Point", "coordinates": [-123.48120897295297, 39.65441692570609]}}, {"type": "Feature", "properties": {"norad_id": 66623, "name": "STARLINK-35920", "group": "last-30-days", "lat": 41.993205531870586, "lon": -119.46502064606386, "alt_km": 382.1656414350791, "timestamp": "2025-12-10T11:33:52.172977+00:00", "meta": {"OBJECT_NAME": "STARLINK-35920", "OBJECT_ID": "2025-271G", "EPOCH": "2025-12-10T04:00:01.998720", "MEAN_MOTION": 15.61168121, "ECCENTRICITY": 0.0001054, "INCLINATION": 53.1597, "RA_OF_ASC_NODE": 199.6212, "ARG_OF_PERICENTER": 75.2424, "MEAN_ANOMALY": 10.053, "EPHEMERIS_TYPE": 0, "CLASSIFICATION_TYPE": "U", "NORAD_CAT_ID": 66623, "ELEMENT_SET_NO": 999, "REV_AT_EPOCH": 383, "BSTAR": -0.026521, "MEAN_MOTION_DOT": -0.02005005, "MEAN_MOTION_DDOT": 0}, "tle": {"line1": "1 66623U 25271G   25344.16668980 -.02005005  00000+0 -26521-1 0  9992", "line2": "2 66623  53.1597 199.6212 0001054  75.2424  10.0530 15.61168121  3834"}}, "geometry": {"type": "Point", "coordinates": [-119.46502064606386, 41.993205531870586]}}, {"type": "Feature", "properties": {"norad_id": 66624, "name": "STARLINK-35927", "group": "last-30-days", "lat": 40.84123639466465, "lon": -121.50806590519225, "alt_km": 382.4623039108783, "timestamp": "2025-12-10T11:33:52.172988+00:00", "meta": {"OBJECT_NAME": "STARLINK-35927", "OBJECT_ID": "2025-271H", "EPOCH": "2025-12-10T04:00:01.998720", "MEAN_MOTION": 15.61169237, "ECCENTRICITY": 8.91e-05, "INCLINATION": 53.1593, "RA_OF_ASC_NODE": 199.6259, "ARG_OF_PERICENTER": 83.0959, "MEAN_ANOMALY": 0.2814, "EPHEMERIS_TYPE": 0, "CLASSIFICATION_TYPE": "U", "NORAD_CAT_ID": 66624, "ELEMENT_SET_NO": 999, "REV_AT_EPOCH": 383, "BSTAR": -0.026514, "MEAN_MOTION_DOT": -0.02004486, "MEAN_MOTION_DDOT": 0}, "tle": {"line1": "1 66624U 25271H   25344.16668980 -.02004486  00000+0 -26514-1 0  9997", "line2": "2 66624  53.1593 199.6259 0000891  83.0959   0.2814 15.61169237  3835"}}, "geometry": {"type": "Point", "coordinates": [-121.50806590519225, 40.84123639466465]}}, {"type": "Feature", "properties": {"norad_id": 66625, "name": "STARLINK-35929", "group": "last-30-days", "lat": 43.106337720962095, "lon": -117.34879629624605, "alt_km": 382.13294110474453, "timestamp": "2025-12-10T11:33:52.172997+00:00", "meta": {"OBJECT_NAME": "STARLINK-35929", "OBJECT_ID": "2025-271J", "EPOCH": "2025-12-10T04:00:01.998720", "MEAN_MOTION": 15.61171239, "ECCENTRICITY": 9.48e-05, "INCLINATION": 53.1597, "RA_OF_ASC_NODE": 199.6169, "ARG_OF_PERICENTER": 95.4743, "MEAN_ANOMALY": 351.7367, "EPHEMERIS_TYPE": 0, "CLASSIFICATION_TYPE": "U", "NORAD_CAT_ID": 66625, "ELEMENT_SET_NO": 999, "REV_AT_EPOCH": 383, "BSTAR": -0.026581, "MEAN_MOTION_DOT": -0.02009083, "MEAN_MOTION_DDOT": 0}, "tle": {"line1": "1 66625U 25271J   25344.16668980 -.02009083  00000+0 -26581-1 0  9990", "line2": "2 66625  53.1597 199.6169 0000948  95.4743 351.7367 15.61171239  3833"}}, "geometry": {"type": "Point", "coordinates": [-117.34879629624605, 43.106337720962095]}}, {"type": "Feature", "properties": {"norad_id": 66626, "name": "STARLINK-35902", "group": "last-30-days", "lat": 44.18170425690278, "lon": -115.14804844283026, "alt_km": 381.8463698151736, "timestamp": "2025-12-10T11:33:52.173039+00:00", "meta": {"OBJECT_NAME": "STARLINK-35902", "OBJECT_ID": "2025-271K", "EPOCH": "2025-12-10T04:00:01.998720", "MEAN_MOTION": 15.61173531, "ECCENTRICITY": 0.0001014, "INCLINATION": 53.1595, "RA_OF_ASC_NODE": 199.6136, "ARG_OF_PERICENTER": 75.8978, "MEAN_ANOMALY": 13.2302, "EPHEMERIS_TYPE": 0, "CLASSIFICATION_TYPE": "U", "NORAD_CAT_ID": 66626, "ELEMENT_SET_NO": 999, "REV_AT_EPOCH": 383, "BSTAR": -0.026634, "MEAN_MOTION_DOT": -0.02012844, "MEAN_MOTION_DDOT": 0}, "tle": {"line1": "1 66626U 25271K   25344.16668980 -.02012844  00000+0 -26634-1 0  9999", "line2": "2 66626  53.1595 199.6136 0001014  75.8978  13.2302 15.61173531  3839"}}, "geometry": {"type": "Point", "coordinates": [-115.14804844283026, 44.18170425690278]}}, {"type": "Feature", "properties": {"norad_id": 66627, "name": "STARLINK-35904", "group": "last-30-days", "lat": 45.210502288256926, "lon": -112.87522558769476, "alt_km": 381.6536867956265, "timestamp": "2025-12-10T11:33:52.173062+00:00", "meta": {"OBJECT_NAME": "STARLINK-35904", "OBJECT_ID": "2025-271L", "EPOCH": "2025-12-10T04:00:01.998720", "MEAN_MOTION": 15.61167443, "ECCENTRICITY": 0.0001057, "INCLINATION": 53.1597, "RA_OF_ASC_NODE": 199.6092, "ARG_OF_PERICENTER": 76.9423, "MEAN_ANOMALY": 14.1032, "EPHEMERIS_TYPE": 0, "CLASSIFICATION_TYPE": "U", "NORAD_CAT_ID": 66627, "ELEMENT_SET_NO": 999, "REV_AT_EPOCH": 367, "BSTAR": -0.026491, "MEAN_MOTION_DOT": -0.02002994, "MEAN_MOTION_DDOT": 0}, "tle": {"line1": "1 66627U 25271L   25344.16668980 -.02002994  00000+0 -26491-1 0  9996", "line2": "2 66627  53.1597 199.6092 0001057  76.9423  14.1032 15.61167443  3674"}}, "geometry": {"type": "Point", "coordinates": [-112.87522558769476, 45.210502288256926]}}, {"type": "Feature", "properties": {"norad_id": 66628, "name": "STARLINK-35862", "group": "last-30-days", "lat": 46.19267162286334, "lon": -110.51839172981471, "alt_km": 381.5446141749817, "timestamp": "2025-12-10T11:33:52.173074+00:00", "meta": {"OBJECT_NAME": "STARLINK-35862", "OBJECT_ID": "2025-271M", "EPOCH": "2025-12-10T04:00:01.998720", "MEAN_MOTION": 15.61167527, "ECCENTRICITY": 0.0001008, "INCLINATION": 53.1595, "RA_OF_ASC_NODE": 199.6052, "ARG_OF_PERICENTER": 80.7357, "MEAN_ANOMALY": 12.226, "EPHEMERIS_TYPE": 0, "CLASSIFICATION_TYPE": "U", "NORAD_CAT_ID": 66628, "ELEMENT_SET_NO": 999, "REV_AT_EPOCH": 383, "BSTAR": -0.026493, "MEAN_MOTION_DOT": -0.02003037, "MEAN_MOTION_DDOT": 0}, "tle": {"line1": "1 66628U 25271M   25344.16668980 -.02003037  00000+0 -26493-1 0  9998", "line2": "2 66628  53.1595 199.6052 0001008  80.7357  12.2260 15.61167527  3837"}}, "geometry": {"type": "Point", "coordinates": [-110.51839172981471, 46.19267162286334]}}]}